[{"OBJECT_NAME":"STARLINK-30895","OBJECT_ID":"2023-180S","EPOCH":"2026-03-09T03:29:16.348704","MEAN_MOTION":15.27575728,"ECCENTRICITY":0.0001198,"INCLINATION":43.0029,"RA_OF_ASC_NODE":55.542,"ARG_OF_PERICENTER":279.4238,"MEAN_ANOMALY":80.6478,"EPHEMERIS_TYPE":0,"CLASSIFICATION_TYPE":"U","NORAD_CAT_ID":58418,"ELEMENT_SET_NO":999,"REV_AT_EPOCH":12743,"BSTAR":1.2293914e-5,"MEAN_MOTION_DOT":7.6e-7,"MEAN_MOTION_DDOT":0},{"OBJECT_NAME":"OBJECT J","OBJECT_ID":"2025-155J","EPOCH":"2026-03-09T22:09:22.347648","MEAN_MOTION":15.2758258,"ECCENTRICITY":0.00088188,"INCLINATION":97.4475,"RA_OF_ASC_NODE":37.3123,"ARG_OF_PERICENTER":150.071,"MEAN_ANOMALY":210.1035,"EPHEMERIS_TYPE":0,"CLASSIFICATION_TYPE":"U","NORAD_CAT_ID":64884,"ELEMENT_SET_NO":999,"REV_AT_EPOCH":6559,"BSTAR":0.00051444498,"MEAN_MOTION_DOT":0.00013827,"MEAN_MOTION_DDOT":0}]
